[{"OBJECT_NAME":"TEVEL2-5","OBJECT_ID":"2025-052E","EPOCH":"2026-03-09T23:11:54.246048","MEAN_MOTION":15.30817434,"ECCENTRICITY":0.00047002,"INCLINATION":97.4013,"RA_OF_ASC_NODE":325.3677,"ARG_OF_PERICENTER":95.3936,"MEAN_ANOMALY":264.7842,"EPHEMERIS_TYPE":0,"CLASSIFICATION_TYPE":"U","NORAD_CAT_ID":63214,"ELEMENT_SET_NO":999,"REV_AT_EPOCH":5491,"BSTAR":0.00071764727,"MEAN_MOTION_DOT":0.00021339,"MEAN_MOTION_DDOT":0},{"OBJECT_NAME":"STARLINK-34228","OBJECT_ID":"2025-113B","EPOCH":"2026-03-09T07:46:49.321344","MEAN_MOTION":15.30207314,"ECCENTRICITY":0.00010434,"INCLINATION":53.1595,"RA_OF_ASC_NODE":92.513,"ARG_OF_PERICENTER":94.1123,"MEAN_ANOMALY":265.9997,"EPHEMERIS_TYPE":0,"CLASSIFICATION_TYPE":"U","NORAD_CAT_ID":64171,"ELEMENT_SET_NO":999,"REV_AT_EPOCH":4501,"BSTAR":0.00081914976,"MEAN_MOTION_DOT":0.00023985,"MEAN_MOTION_DDOT":0}]
